[
    {
        "Altitude(m)": 717571.6655205304,
        "Argument of Periapsis(deg)": 0.0011390121186627068,
        "Eccentricity": 0.0,
        "Inclination(deg)": 45.0,
        "Latitude(deg)": -44.402859680744214,
        "Longitude(deg)": -176.98561272747028,
        "Mean Anomaly(deg)": 279.3351216647481,
        "RAAN(deg)": -0.0010751941458203933,
        "Satellite Name": "Constellation 1 17",
        "Satellite Number": 17,
        "Semi-Major Axis(m)": 7083131.272910544,
        "Time(s)": 19
    },
    {
        "Altitude(m)": 717567.6467235079,
        "Argument of Periapsis(deg)": 0.0011989601249081123,
        "Eccentricity": 0.0,
        "Inclination(deg)": 45.0,
        "Latitude(deg)": -44.39313469189219,
        "Longitude(deg)": -176.90628526836815,
        "Mean Anomaly(deg)": 279.395822804998,
        "RAAN(deg)": -0.0011317833113898878,
        "Satellite Name": "Constellation 1 17",
        "Satellite Number": 17,
        "Semi-Major Axis(m)": 7083131.272910544,
        "Time(s)": 20
    },
    {
        "Altitude(m)": 717563.6026779156,
        "Argument of Periapsis(deg)": 0.001258908131153518,
        "Eccentricity": 0.0,
        "Inclination(deg)": 45.0,
        "Latitude(deg)": -44.383348779197505,
        "Longitude(deg)": -176.82698546407852,
        "Mean Anomaly(deg)": 279.45652394524785,
        "RAAN(deg)": -0.0011883724769593822,
        "Satellite Name": "Constellation 1 17",
        "Satellite Number": 17,
        "Semi-Major Axis(m)": 7083131.272910544,
        "Time(s)": 21
    },
    {
        "Altitude(m)": 717559.5333986548,
        "Argument of Periapsis(deg)": 0.0013188561373989236,
        "Eccentricity": 0.0,
        "Inclination(deg)": 45.0,
        "Latitude(deg)": -44.37350198323381,
        "Longitude(deg)": -176.74771363653934,
        "Mean Anomaly(deg)": 279.5172250854978,
        "RAAN(deg)": -0.0012449616425288764,
        "Satellite Name": "Constellation 1 17",
        "Satellite Number": 17,
        "Semi-Major Axis(m)": 7083131.272910544,
        "Time(s)": 22
    },
    {
        "Altitude(m)": 717555.4389007121,
        "Argument of Periapsis(deg)": 0.0013788041436443293,
        "Eccentricity": 0.0,
        "Inclination(deg)": 45.0,
        "Latitude(deg)": -44.36359434479377,
        "Longitude(deg)": -176.66846960294674,
        "Mean Anomaly(deg)": 279.5779262257477,
        "RAAN(deg)": -0.001301550808098371,
        "Satellite Name": "Constellation 1 17",
        "Satellite Number": 17,
        "Semi-Major Axis(m)": 7083131.272910544,
        "Time(s)": 23
    },
    {
        "Altitude(m)": 717551.3191991673,
        "Argument of Periapsis(deg)": 0.001438752149889735,
        "Eccentricity": 0.0,
        "Inclination(deg)": 45.0,
        "Latitude(deg)": -44.353625904886464,
        "Longitude(deg)": -176.58925368433643,
        "Mean Anomaly(deg)": 279.6386273659976,
        "RAAN(deg)": -0.0013581399736678655,
        "Satellite Name": "Constellation 1 17",
        "Satellite Number": 17,
        "Semi-Major Axis(m)": 7083131.272910544,
        "Time(s)": 24
    },
    {
        "Altitude(m)": 717547.1743091904,
        "Argument of Periapsis(deg)": 0.0014987001561351404,
        "Eccentricity": 0.0,
        "Inclination(deg)": 45.0,
        "Latitude(deg)": -44.34359670472809,
        "Longitude(deg)": -176.5100660331123,
        "Mean Anomaly(deg)": 279.69932850624747,
        "RAAN(deg)": -0.0014147291392373595,
        "Satellite Name": "Constellation 1 17",
        "Satellite Number": 17,
        "Semi-Major Axis(m)": 7083131.272910544,
        "Time(s)": 25
    },
    {
        "Altitude(m)": 717543.0042460557,
        "Argument of Periapsis(deg)": 0.001558648162380546,
        "Eccentricity": 0.0,
        "Inclination(deg)": 45.0,
        "Latitude(deg)": -44.333506785779434,
        "Longitude(deg)": -176.43090680146122,
        "Mean Anomaly(deg)": 279.76002964649734,
        "RAAN(deg)": -0.001471318304806854,
        "Satellite Name": "Constellation 1 17",
        "Satellite Number": 17,
        "Semi-Major Axis(m)": 7083131.272910544,
        "Time(s)": 26
    },
    {
        "Altitude(m)": 717538.809025124,
        "Argument of Periapsis(deg)": 0.0016185961686259519,
        "Eccentricity": 0.0,
        "Inclination(deg)": 45.0,
        "Latitude(deg)": -44.32335618968769,
        "Longitude(deg)": -176.3517761408751,
        "Mean Anomaly(deg)": 279.8207307867473,
        "RAAN(deg)": -0.0015279074703763483,
        "Satellite Name": "Constellation 1 17",
        "Satellite Number": 17,
        "Semi-Major Axis(m)": 7083131.272910544,
        "Time(s)": 27
    },
    {
        "Altitude(m)": 717534.5886618379,
        "Argument of Periapsis(deg)": 0.0016785441748713573,
        "Eccentricity": 0.0,
        "Inclination(deg)": 45.0,
        "Latitude(deg)": -44.31314495832377,
        "Longitude(deg)": -176.2726742024651,
        "Mean Anomaly(deg)": 279.88143192699715,
        "RAAN(deg)": -0.0015844966359458428,
        "Satellite Name": "Constellation 1 17",
        "Satellite Number": 17,
        "Semi-Major Axis(m)": 7083131.272910544,
        "Time(s)": 28
    },
    {
        "Altitude(m)": 717530.3431717436,
        "Argument of Periapsis(deg)": 0.001738492181116763,
        "Eccentricity": 0.0,
        "Inclination(deg)": 45.0,
        "Latitude(deg)": -44.30287313377196,
        "Longitude(deg)": -176.19360113688063,
        "Mean Anomaly(deg)": 279.942133067247,
        "RAAN(deg)": -0.0016410858015153372,
        "Satellite Name": "Constellation 1 17",
        "Satellite Number": 17,
        "Semi-Major Axis(m)": 7083131.272910544,
        "Time(s)": 29
    },
    {
        "Altitude(m)": 717526.0725704844,
        "Argument of Periapsis(deg)": 0.0017984401873621684,
        "Eccentricity": 0.0,
        "Inclination(deg)": 45.0,
        "Latitude(deg)": -44.29254075832883,
        "Longitude(deg)": -176.1145572624049,
        "Mean Anomaly(deg)": 280.00283420749696,
        "RAAN(deg)": -0.0016976749670848316,
        "Satellite Name": "Constellation 1 17",
        "Satellite Number": 17,
        "Semi-Major Axis(m)": 7083131.272910544,
        "Time(s)": 30
    },
    {
        "Altitude(m)": 717521.7768737786,
        "Argument of Periapsis(deg)": 0.0018583881936075745,
        "Eccentricity": 0.0,
        "Inclination(deg)": 45.0,
        "Latitude(deg)": -44.28214787450386,
        "Longitude(deg)": -176.0355423925653,
        "Mean Anomaly(deg)": 280.0635353477469,
        "RAAN(deg)": -0.001754264132654326,
        "Satellite Name": "Constellation 1 17",
        "Satellite Number": 17,
        "Semi-Major Axis(m)": 7083131.272910544,
        "Time(s)": 31
    },
    {
        "Altitude(m)": 717517.4560974564,
        "Argument of Periapsis(deg)": 0.0019183361998529795,
        "Eccentricity": 0.0,
        "Inclination(deg)": 45.0,
        "Latitude(deg)": -44.27169452501647,
        "Longitude(deg)": -175.95655684471328,
        "Mean Anomaly(deg)": 280.12423648799677,
        "RAAN(deg)": -0.0018108532982238203,
        "Satellite Name": "Constellation 1 17",
        "Satellite Number": 17,
        "Semi-Major Axis(m)": 7083131.272910544,
        "Time(s)": 32
    },
    {
        "Altitude(m)": 717513.1102574221,
        "Argument of Periapsis(deg)": 0.0019782842060983856,
        "Eccentricity": 0.0,
        "Inclination(deg)": 45.0,
        "Latitude(deg)": -44.26118075279684,
        "Longitude(deg)": -175.87760076763496,
        "Mean Anomaly(deg)": 280.18493762824664,
        "RAAN(deg)": -0.001867442463793315,
        "Satellite Name": "Constellation 1 17",
        "Satellite Number": 17,
        "Semi-Major Axis(m)": 7083131.272910544,
        "Time(s)": 33
    },
    {
        "Altitude(m)": 717508.7393696859,
        "Argument of Periapsis(deg)": 0.0020382322123437906,
        "Eccentricity": 0.0,
        "Inclination(deg)": 45.0,
        "Latitude(deg)": -44.25060660098445,
        "Longitude(deg)": -175.79867430964603,
        "Mean Anomaly(deg)": 280.2456387684965,
        "RAAN(deg)": -0.0019240316293628091,
        "Satellite Name": "Constellation 1 17",
        "Satellite Number": 17,
        "Semi-Major Axis(m)": 7083131.272910544,
        "Time(s)": 34
    },
    {
        "Altitude(m)": 717504.3434503416,
        "Argument of Periapsis(deg)": 0.002098180218589197,
        "Eccentricity": 0.0,
        "Inclination(deg)": 45.0,
        "Latitude(deg)": -44.23997211292755,
        "Longitude(deg)": -175.71977761859063,
        "Mean Anomaly(deg)": 280.3063399087465,
        "RAAN(deg)": -0.0019806207949323034,
        "Satellite Name": "Constellation 1 17",
        "Satellite Number": 17,
        "Semi-Major Axis(m)": 7083131.272910544,
        "Time(s)": 35
    },
    {
        "Altitude(m)": 717499.9225155776,
        "Argument of Periapsis(deg)": 0.002158128224834602,
        "Eccentricity": 0.0,
        "Inclination(deg)": 45.0,
        "Latitude(deg)": -44.22927733218222,
        "Longitude(deg)": -175.6409108418388,
        "Mean Anomaly(deg)": 280.3670410489964,
        "RAAN(deg)": -0.002037209960501798,
        "Satellite Name": "Constellation 1 17",
        "Satellite Number": 17,
        "Semi-Major Axis(m)": 7083131.272910544,
        "Time(s)": 36
    },
    {
        "Altitude(m)": 717495.476581677,
        "Argument of Periapsis(deg)": 0.002218076231080008,
        "Eccentricity": 0.0,
        "Inclination(deg)": 45.0,
        "Latitude(deg)": -44.21852230251126,
        "Longitude(deg)": -175.56207429438237,
        "Mean Anomaly(deg)": 280.42774218924626,
        "RAAN(deg)": -0.002093799126071292,
        "Satellite Name": "Constellation 1 17",
        "Satellite Number": 17,
        "Semi-Major Axis(m)": 7083131.272910544,
        "Time(s)": 37
    }
]